NORAD_CAT_ID,OBJECT_NAME,OBJECT_TYPE,EPOCH,MEAN_MOTION,ECCENTRICITY,INCLINATION,RA_OF_ASC_NODE,ARG_OF_PERICENTER,MEAN_ANOMALY,BSTAR,MEAN_MOTION_DOT,MEAN_MOTION_DDOT,TLE_LINE0,TLE_LINE1,TLE_LINE2,SEMIMAJOR_AXIS,PERIOD,APOGEE,PERIGEE,DECAYED
51961.0,STARLINK-3689,PAYLOAD,2024-07-25 03:53:43,15.08031294,0.0001468,53.0541,164.2019,96.7835,263.3321,3.5168e-05,2.62e-06,0.0,0 STARLINK-3689,1 51961U 22025F   24207.16230721  .00000262  00000-0  35168-4 0  9997,2 51961  53.0541 164.2019 0001468  96.7835 263.3321 15.08031294131707,6920.353,95.489,543.234,541.202,0.0
51961.0,STARLINK-3689,PAYLOAD,2024-07-25 07:04:35,15.0803233,0.0001444,53.054,163.6048,98.5889,261.5264,3.9733e-05,3.33e-06,0.0,0 STARLINK-3689,1 51961U 22025F   24207.29485605  .00000333  00000-0  39733-4 0  9995,2 51961  53.0540 163.6048 0001444  98.5889 261.5264 15.08032330131724,6920.35,95.489,543.215,541.216,0.0
51961.0,STARLINK-3689,PAYLOAD,2024-07-26 03:45:15,15.08029557,0.0001476,53.0541,159.7267,99.0551,261.0605,5.2297e-05,5.28e-06,0.0,0 STARLINK-3689,1 51961U 22025F   24208.15643185  .00000528  00000-0  52297-4 0  9996,2 51961  53.0541 159.7267 0001476  99.0551 261.0605 15.08029557132969,6920.359,95.489,543.245,541.202,0.0
51961.0,STARLINK-3689,PAYLOAD,2024-07-26 06:56:07,15.08029994,0.000148,53.0541,159.1301,99.7767,260.339,5.4415e-05,5.61e-06,0.0,0 STARLINK-3689,1 51961U 22025F   24208.28898142  .00000561  00000-0  54415-4 0  9996,2 51961  53.0541 159.1301 0001480  99.7767 260.3390 15.08029994131870,6920.357,95.489,543.247,541.198,0.0
51961.0,STARLINK-3689,PAYLOAD,2024-07-26 13:17:52,15.08026458,0.0001391,53.0535,157.937,88.8327,271.2822,2.029e-05,3e-07,0.0,0 STARLINK-3689,1 51961U 22025F   24208.55408520  .00000030  00000-0  20290-4 0  9998,2 51961  53.0535 157.9370 0001391  88.8327 271.2822 15.08026458131915,6920.368,95.489,543.196,541.271,0.0
51961.0,STARLINK-3689,PAYLOAD,2024-07-27 03:36:50,15.08009929,0.0001536,53.0546,155.2537,92.3805,267.7361,-0.00013934,-2.453e-05,0.0,0 STARLINK-3689,1 51961U 22025F   24209.15058033 -.00002453  00000-0 -13934-3 0  9994,2 51961  53.0546 155.2537 0001536  92.3805 267.7361 15.08009929133111,6920.419,95.49,543.347,541.221,0.0
51961.0,STARLINK-3689,PAYLOAD,2024-07-27 21:06:37,15.08021014,0.0002236,53.0556,151.9736,97.9411,262.1832,-4.2475e-05,-9.47e-06,0.0,0 STARLINK-3689,1 51961U 22025F   24209.87960103 -.00000947  00000-0 -42475-4 0  9992,2 51961  53.0556 151.9736 0002236  97.9411 262.1832 15.08021014132118,6920.385,95.489,543.797,540.702,0.0
51961.0,STARLINK-3689,PAYLOAD,2024-07-28 03:28:21,15.08030258,0.0001437,53.0544,150.7804,95.2224,264.893,3.3727e-05,2.39e-06,0.0,0 STARLINK-3689,1 51961U 22025F   24210.14469309  .00000239  00000-0  33727-4 0  9998,2 51961  53.0544 150.7804 0001437  95.2224 264.8930 15.08030258133268,6920.357,95.489,543.216,541.227,0.0
51961.0,STARLINK-3689,PAYLOAD,2024-07-28 13:00:58,15.08034972,0.0001486,53.0553,148.9914,93.8869,266.229,4.0088e-05,3.38e-06,0.0,0 STARLINK-3689,1 51961U 22025F   24210.54234015  .00000338  00000-0  40088-4 0  9994,2 51961  53.0553 148.9914 0001486  93.8869 266.2290 15.08034972132218,6920.342,95.489,543.235,541.179,0.0
51961.0,STARLINK-3689,PAYLOAD,2024-07-29 12:52:30,15.08035138,0.0001333,53.0531,144.5156,82.2401,277.874,0.00016565,2.294e-05,0.0,0 STARLINK-3689,1 51961U 22025F   24211.53646166  .00002294  00000-0  16565-3 0  9993,2 51961  53.0531 144.5156 0001333  82.2401 277.8740 15.08035138133471,6920.342,95.488,543.129,541.284,0.0
51961.0,STARLINK-3689,PAYLOAD,2024-07-29 19:14:15,15.08036158,0.0001532,53.0547,143.3238,85.6624,274.454,5.2598e-05,5.33e-06,0.0,0 STARLINK-3689,1 51961U 22025F   24211.80156487  .00000533  00000-0  52598-4 0  9996,2 51961  53.0547 143.3238 0001532  85.6624 274.4540 15.08036158132407,6920.339,95.488,543.264,541.143,0.0
51961.0,STARLINK-3689,PAYLOAD,2024-07-30 12:44:02,15.08039788,0.0001387,53.0543,140.0432,85.1189,274.9959,4.0881e-05,3.51e-06,0.0,0 STARLINK-3689,1 51961U 22025F   24212.53058356  .00000351  00000-0  40881-4 0  9993,2 51961  53.0543 140.0432 0001387  85.1189 274.9959 15.08039788132515,6920.327,95.488,543.152,541.233,0.0
51961.0,STARLINK-3689,PAYLOAD,2024-07-30 19:05:47,15.08039198,0.0001434,53.0544,138.8512,84.4504,275.6649,3.139e-06,-2.37e-06,0.0,0 STARLINK-3689,1 51961U 22025F   24212.79568369 -.00000237  00000-0  31390-5 0  9991,2 51961  53.0544 138.8512 0001434  84.4504 275.6649 15.08039198133662,6920.329,95.488,543.187,541.202,0.0
51961.0,STARLINK-3689,PAYLOAD,2024-07-31 12:35:34,15.08038092,0.0001388,53.054,135.5696,87.0818,273.033,-7.7347e-05,-1.49e-05,0.0,0 STARLINK-3689,1 51961U 22025F   24213.52470642 -.00001490  00000-0 -77347-4 0  9993,2 51961  53.0540 135.5696 0001388  87.0818 273.0330 15.08038092132660,6920.333,95.488,543.158,541.237,0.0
51961.0,STARLINK-3689,PAYLOAD,2024-07-31 22:08:12,15.0802234,0.000144,53.0544,133.7803,84.1151,276.0002,3.3402e-05,2.34e-06,0.0,0 STARLINK-3689,1 51961U 22025F   24213.92236321  .00000234  00000-0  33402-4 0  9998,2 51961  53.0544 133.7803 0001440  84.1151 276.0002 15.08022340132726,6920.381,95.489,543.242,541.249,0.0
51961.0,STARLINK-3689,PAYLOAD,2024-08-01 01:19:04,15.08025604,0.0001383,53.0558,133.1826,89.2129,270.9019,2.5128e-05,1.05e-06,0.0,0 STARLINK-3689,1 51961U 22025F   24214.05491090  .00000105  00000-0  25128-4 0  9992,2 51961  53.0558 133.1826 0001383  89.2129 270.9019 15.08025604132746,6920.371,95.489,543.193,541.279,0.0
51961.0,STARLINK-3689,PAYLOAD,2024-08-01 21:59:42,15.08044874,0.0001162,53.0543,129.3038,81.6103,278.5018,0.00012527,1.666e-05,0.0,0 STARLINK-3689,1 51961U 22025F   24214.91646273  .00001666  00000-0  12527-3 0  9993,2 51961  53.0543 129.3038 0001162  81.6103 278.5018 15.08044874133985,6920.312,95.488,542.981,541.373,0.0
51961.0,STARLINK-3689,PAYLOAD,2024-08-02 01:10:36,15.08014771,0.0001339,53.0542,128.7097,85.7468,274.3674,-0.00018071,-3.097e-05,0.0,0 STARLINK-3689,1 51961U 22025F   24215.04903814 -.00003097  00000-0 -18071-3 0  9997,2 51961  53.0542 128.7097 0001339  85.7468 274.3674 15.08014771134006,6920.404,95.49,543.196,541.342,0.0
51961.0,STARLINK-3689,PAYLOAD,2024-08-02 10:43:14,15.08014041,0.000138,53.0539,126.9184,81.0388,279.0758,-0.00014086,-2.477e-05,0.0,0 STARLINK-3689,1 51961U 22025F   24215.44669040 -.00002477  00000-0 -14086-3 0  9994,2 51961  53.0539 126.9184 0001380  81.0388 279.0758 15.08014041132952,6920.406,95.49,543.226,541.316,0.0
51961.0,STARLINK-3689,PAYLOAD,2024-08-02 21:51:16,15.08019219,0.0001544,53.0555,124.834,98.7346,261.3819,2.2308e-05,6.1e-07,0.0,0 STARLINK-3689,1 51961U 22025F   24215.91061275  .00000061  00000-0  22308-4 0  9994,2 51961  53.0555 124.8340 0001544  98.7346 261.3819 15.08019219133025,6920.39,95.489,543.324,541.187,0.0
51961.0,STARLINK-3689,PAYLOAD,2024-08-03 04:13:01,15.08028691,0.0001231,53.0543,123.6359,82.3556,277.7573,5.4986e-05,5.7e-06,0.0,0 STARLINK-3689,1 51961U 22025F   24216.17570781  .00000570  00000-0  54986-4 0  9992,2 51961  53.0543 123.6359 0001231  82.3556 277.7573 15.08028691134173,6920.361,95.489,543.078,541.374,0.0
51961.0,STARLINK-3689,PAYLOAD,2024-08-03 10:34:45,15.0803304,0.0001215,53.0542,122.4429,79.7506,280.362,-4.2184e-05,-9.43e-06,0.0,0 STARLINK-3689,1 51961U 22025F   24216.44080683 -.00000943  00000-0 -42184-4 0  9992,2 51961  53.0542 122.4429 0001215  79.7506 280.3620 15.08033040133103,6920.348,95.489,543.054,541.372,0.0
51961.0,STARLINK-3689,PAYLOAD,2024-08-03 21:42:49,15.08010878,0.0001216,53.054,120.3556,80.8713,279.2414,0.00013707,1.848e-05,0.0,0 STARLINK-3689,1 51961U 22025F   24216.90473756  .00001848  00000-0  13707-3 0  9991,2 51961  53.0540 120.3556 0001216  80.8713 279.2414 15.08010878133172,6920.416,95.49,543.122,541.439,0.0
51961.0,STARLINK-3689,PAYLOAD,2024-08-04 00:53:41,15.08013396,0.0001209,53.0549,119.76,77.15,282.9624,0.00019855,2.805e-05,0.0,0 STARLINK-3689,1 51961U 22025F   24217.03728500  .00002805  00000-0  19855-3 0  9990,2 51961  53.0549 119.7600 0001209  77.1500 282.9624 15.08013396134306,6920.408,95.49,543.11,541.436,0.0
51961.0,STARLINK-3689,PAYLOAD,2024-08-04 10:26:18,15.0801631,0.0001172,53.0543,117.9667,74.6782,285.4337,0.00012868,1.717e-05,0.0,0 STARLINK-3689,1 51961U 22025F   24217.43493851  .00001717  00000-0  12868-3 0  9990,2 51961  53.0543 117.9667 0001172  74.6782 285.4337 15.08016310133257,6920.399,95.49,543.075,541.453,0.0
51961.0,STARLINK-3689,PAYLOAD,2024-08-04 21:34:21,15.08022528,0.0001323,53.0549,115.8853,106.6493,253.4642,7.9417e-05,9.5e-06,0.0,0 STARLINK-3689,1 51961U 22025F   24217.89886535  .00000950  00000-0  79417-4 0  9997,2 51961  53.0549 115.8853 0001323 106.6493 253.4642 15.08022528133320,6920.38,95.489,543.161,541.33,0.0
51961.0,STARLINK-3689,PAYLOAD,2024-08-05 00:45:12,15.0804338,0.0001253,53.0545,115.2848,87.9369,272.1764,0.00017513,2.443e-05,0.0,0 STARLINK-3689,1 51961U 22025F   24218.03139969  .00002443  00000-0  17513-3 0  9993,2 51961  53.0545 115.2848 0001253  87.9369 272.1764 15.08043380134456,6920.316,95.488,543.049,541.314,0.0
51961.0,STARLINK-3689,PAYLOAD,2024-08-05 21:25:54,15.0801679,0.0001199,53.0541,111.4083,76.007,284.1053,-3.2795e-05,-7.96e-06,0.0,0 STARLINK-3689,1 51961U 22025F   24218.89299722 -.00000796  00000-0 -32795-4 0  9992,2 51961  53.0541 111.4083 0001199  76.0070 284.1053 15.08016790134581,6920.398,95.49,543.093,541.433,0.0
51961.0,STARLINK-3689,PAYLOAD,2024-08-06 00:36:46,15.08027876,0.0001344,53.054,110.811,73.7346,286.3791,-7.2643e-05,-1.417e-05,0.0,0 STARLINK-3689,1 51961U 22025F   24219.02554300 -.00001417  00000-0 -72643-4 0  9991,2 51961  53.0540 110.8110 0001344  73.7346 286.3791 15.08027876134609,6920.364,95.489,543.159,541.299,0.0
51961.0,STARLINK-3689,PAYLOAD,2024-08-06 21:17:26,15.08027667,0.0001332,53.0537,106.9361,79.8295,280.2845,4.7739e-05,4.57e-06,0.0,0 STARLINK-3689,1 51961U 22025F   24219.88711620  .00000457  00000-0  47739-4 0  9994,2 51961  53.0537 106.9361 0001332  79.8295 280.2845 15.08027667133628,6920.364,95.489,543.151,541.308,0.0
